COSMOS 2425 (716)       
1 29670U 06062A   18198.52096685 -.00000035  00000-0  10000-3 0  9999
2 29670  65.2641 291.5120 0019956 345.6235 317.6906  2.13105043 89950
COSMOS 2426 (717)       
1 29671U 06062B   18197.56022508 -.00000024  00000-0  10000-3 0  9994
2 29671  65.2834 291.6440 0019077 165.3440 336.4422  2.13102966 89942
COSMOS 2433 (720)       
1 32275U 07052A   18197.90873019 -.00000049  00000-0  10000-3 0  9994
2 32275  65.7007  52.3644 0001011 293.7602  91.0798  2.13104593 83465
COSMOS 2432 (719)       
1 32276U 07052B   18197.56870418 -.00000046  00000-0  10000-3 0  9994
2 32276  65.7135  52.4532 0011151 343.5274  92.3676  2.13103978 83454
COSMOS 2434 (721)       
1 32393U 07065A   18198.46187547 -.00000034  00000-0  00000+0 0  9994
2 32393  64.8785 290.4745 0004684 126.3276 210.8530  2.13103035 82175
COSMOS 2436 (723)       
1 32395U 07065C   18198.46382685 -.00000034  00000-0  10000-3 0  9991
2 32395  64.8886 290.5248 0013782   0.8969  28.4320  2.13104439 82115
COSMOS 2456 (730)       
1 36111U 09070A   18197.88524624  .00000058  00000-0  00000-0 0  9996
2 36111  64.1888 170.0861 0006562 301.3769 125.7648  2.13103032 66831
COSMOS 2457 (733)       
1 36112U 09070B   18197.87141694  .00000057  00000-0  00000+0 0  9996
2 36112  64.1707 169.9970 0005695 195.0714 348.1916  2.13101649 66835
COSMOS 2458 (734)       
1 36113U 09070C   18198.23120193  .00000060  00000-0  10000-3 0  9998
2 36113  64.1766 169.9955 0003030 317.2257 189.2719  2.13096782 66842
COSMOS 2459 (731)       
1 36400U 10007A   18198.29624137 -.00000051  00000-0  10000-3 0  9993
2 36400  65.6111  51.4097 0027261 355.3144 185.5132  2.13102240 65195
COSMOS 2461 (735)       
1 36401U 10007B   18197.82704788 -.00000048  00000-0  10000-3 0  9999
2 36401  65.6026  51.3995 0008685  65.5498  25.9286  2.13102313 65185
COSMOS 2460 (732)       
1 36402U 10007C   18197.62445032 -.00000047  00000-0  10000-3 0  9991
2 36402  65.5936  51.3737 0002012  59.7982 276.8068  2.13101644 65170
COSMOS 2464 (736)       
1 37139U 10041C   18197.79373875 -.00000027  00000-0  00000-0 0  9994
2 37139  64.4818 290.2878 0022539  13.4072  39.0049  2.13102784 61257
COSMOS 2471 (701K)      
1 37372U 11009A   18198.40682465 -.00000052  00000-0  00000+0 0  9992
2 37372  65.5910  51.2924 0006909 229.5865 131.8307  2.13107595 57473
COSMOS 2474 (742)       
1 37829U 11055A   18197.67630144  .00000057  00000-0  00000-0 0  9990
2 37829  64.5120 170.8234 0011006 253.9505 230.9090  2.13101972 52827
COSMOS 2476 (744)       
1 37867U 11064A   18197.98924015  .00000059  00000-0  00000+0 0  9990
2 37867  64.4923 170.8740 0020569 245.5751 165.4124  2.13102015 52183
COSMOS 2477 (745)       
1 37868U 11064B   18198.29382267  .00000062  00000-0  00000+0 0  9997
2 37868  64.5005 170.9125 0018356 247.1697 216.3583  2.13101864 52144
COSMOS 2475 (743)       
1 37869U 11064C   18198.45333921  .00000063  00000-0  00000+0 0  9990
2 37869  64.5079 170.9019 0023039 268.4954 274.1520  2.13102201 52154
COSMOS 2485 (747)       
1 39155U 13019A   18198.31630964  .00000062  00000-0  00000+0 0  9993
2 39155  64.6613 170.9788 0020907 240.9606 105.8079  2.13102058 40653
COSMOS 2492 (754)       
1 39620U 14012A   18197.74650970 -.00000048  00000-0  10000-3 0  9999
2 39620  65.4827  51.2515 0014241 336.9949 327.4523  2.13103439 33590
COSMOS 2500 (755)       
1 40001U 14032A   18198.56790503 -.00000053  00000-0  00000+0 0  9995
2 40001  65.4241  51.1890 0004615 192.0876 244.7209  2.13102882 31832
COSMOS 2501 (702K)      
1 40315U 14075A   18197.82356514 -.00000029  00000-0  00000+0 0  9991
2 40315  64.2067 291.4895 0016435 205.6334 181.4480  2.13098774 28221
COSMOS 2514 (751)       
1 41330U 16008A   18198.51706176 -.00000053  00000-0  00000+0 0  9994
2 41330  65.2256  51.2373 0007810 209.6141   9.1311  2.13103307 18991
COSMOS 2516 (753)       
1 41554U 16032A   18197.91884741 -.00000029  00000-0  00000+0 0  9990
2 41554  64.4276 291.3583 0013090 214.2541 156.6103  2.13101735 16599
COSMOS 2522 (752)       
1 42939U 17055A   18198.50548654 -.00000036  00000-0  00000+0 0  9998
2 42939  64.6573 291.3139 0007665 236.8122  90.5291  2.13101922  6357
